BEIDOU 3 (C01)          
1 36287U 10001A   21245.53143333 -.00000283  00000-0  00000-0 0  9991
2 36287   1.9940  49.2036 0005793  91.7759 172.6971  1.00272742 42629
BEIDOU 5 (C06)          
1 36828U 10036A   21245.61120318 -.00000149  00000-0  00000-0 0  9998
2 36828  54.1840 178.8816 0023236 183.3837 306.6793  1.00281271 40694
BEIDOU 6 (C04)          
1 37210U 10057A   21245.65200957 -.00000115  00000-0  00000-0 0  9992
2 37210   0.9706  54.7584 0006526 131.8786 190.1175  1.00271419 39756
BEIDOU 7 (C07)          
1 37256U 10068A   21245.56299606 -.00000155  00000-0  00000-0 0  9997
2 37256  50.7265 293.0850 0019952 183.9034 174.5442  1.00307207 39257
BEIDOU 8 (C08)          
1 37384U 11013A   21245.50000000 -.00000113  00000-0  00000+0 0  9995
2 37384  59.4030  56.9030 0041359 176.1760  34.2200  0.99982478 38133
BEIDOU 9 (C09)          
1 37763U 11038A   21245.28768613 -.00000088  00000-0  00000-0 0  9991
2 37763  54.4711 181.3404 0086622 227.0465 128.9330  1.00293787 37105
BEIDOU 10 (C10)         
1 37948U 11073A   21245.59742080 -.00000112  00000-0  00000-0 0  9997
2 37948  50.8299 292.7082 0078498 216.6723 144.0082  1.00275929 35876
BEIDOU 11 (C05)         
1 38091U 12008A   21245.62618904  .00000053  00000-0  00000-0 0  9990
2 38091   1.7158  69.6203 0004962 341.1552 215.3698  1.00275344 34943
BEIDOU 12 (C11)         
1 38250U 12018A   21245.34096706 -.00000095  00000-0  00000-0 0  9994
2 38250  56.7501   3.0770 0021754 243.8115 120.0008  1.86234328 63720
BEIDOU 13 (C12)         
1 38251U 12018B   21245.27380909 -.00000096  00000-0  00000-0 0  9999
2 38251  56.6714   2.4226 0012586 243.0025 120.1422  1.86234107 63726
BEIDOU 15 (C14)         
1 38775U 12050B   21243.78156881 -.00000028  00000-0  00000-0 0  9995
2 38775  55.2416 121.4443 0013806 326.2593 313.7557  1.86231454 61060
BEIDOU 16 (C02)         
1 38953U 12059A   21245.61507770 -.00000179  00000-0  00000-0 0  9990
2 38953   1.2794  84.0417 0009873 294.3294 269.0951  1.00270197 32517
BEIDOU 17 (C31)         
1 40549U 15019A   21245.56977846 -.00000131  00000-0  00000+0 0  9999
2 40549  52.3691 316.1014 0040782 191.2372 130.6249  1.00250004 23543
BEIDOU 18 (C57)         
1 40748U 15037A   21245.40749635 -.00000096  00000-0  00000-0 0  9997
2 40748  55.9308   1.4578 0002408  55.3177 307.2624  1.86233444 41556
BEIDOU 19 (C58)         
1 40749U 15037B   21245.20673836 -.00000097  00000-0  00000-0 0  9996
2 40749  55.9340   1.4540 0002223 314.6093  49.1334  1.86232107 41549
BEIDOU 20 (C18)         
1 40938U 15053A   21245.39398928 -.00000075  00000-0  00000-0 0  9996
2 40938  51.9461 279.1810 0048625 195.2307 105.1560  1.00266212 21812
BEIDOU IGSO-6 (C13)     
1 41434U 16021A   21245.46646708 -.00000100  00000-0  00000-0 0  9993
2 41434  57.6746  55.8291 0039346 210.2647 336.2297  1.00254668 19947
BEIDOU-2 G7 (C03)       
1 41586U 16037A   21245.52541529 -.00000357  00000-0  00000-0 0  9994
2 41586   1.8603  68.6745 0007636  17.2491 195.6196  1.00268501 19253
BEIDOU-3 M1 (C19)       
1 43001U 17069A   21245.51160606 -.00000009  00000-0  00000-0 0  9990
2 43001  55.3966 121.3476 0009226 296.2327 219.6710  1.86231828 26034
BEIDOU-3 M2 (C20)       
1 43002U 17069B   21245.53290813 -.00000008  00000-0  00000+0 0  9995
2 43002  55.3954 121.3817 0007936 321.1411 252.3990  1.86231336 26026
BEIDOU-3 M3 (C27)       
1 43107U 18003A   21245.50882472 -.00000096  00000-0  00000-0 0  9993
2 43107  55.3755   2.5007 0004632  65.6411 297.6651  1.86232501 24795
BEIDOU-3 M4 (C28)       
1 43108U 18003B   21244.85478378 -.00000099  00000-0  00000-0 0  9990
2 43108  55.3695   2.5119 0002992 221.6068 108.3748  1.86232517 24772
BEIDOU-3 M5 (C21)       
1 43207U 18018A   21244.80987807 -.00000017  00000-0  00000-0 0  9993
2 43207  55.3548 121.4951 0006104 346.8016  13.2616  1.86231715 24166
BEIDOU-3 M6 (C22)       
1 43208U 18018B   21244.33963967 -.00000023  00000-0  00000-0 0  9990
2 43208  55.3540 121.5147 0007481 309.8323  50.1788  1.86231598 24154
BEIDOU-3 M7 (C29)       
1 43245U 18029A   21244.47133758 -.00000101  00000-0  00000-0 0  9992
2 43245  55.3035   0.3231 0000974 150.2886 147.6791  1.86232911 23306
BEIDOU-3 M8 (C30)       
1 43246U 18029B   21245.56632101 -.00000097  00000-0  10000-3 0  9998
2 43246  55.3003   0.3159 0002978 358.6707 359.6916  1.86233201 23311
BEIDOU IGSO-7 (C16)     
1 43539U 18057A   21245.64030257 -.00000154  00000-0  00000-0 0  9997
2 43539  55.0644 178.2675 0041499 224.9627 279.3556  1.00298475 11628
BEIDOU-3 M9 (C23)       
1 43581U 18062A   21245.25078352  .00000071  00000-0  00000-0 0  9992
2 43581  54.3754 241.9616 0006297 267.9532  89.1051  1.86231862 21057
BEIDOU-3 M10 (C24)      
1 43582U 18062B   21244.58150005  .00000073  00000-0  00000-0 0  9996
2 43582  54.3740 241.9741 0005078 325.8648  33.8792  1.86232188 21049
BEIDOU-3 M11 (C25)      
1 43602U 18067A   21244.76346925  .00000073  00000-0  00000-0 0  9992
2 43602  54.4519 240.5570 0006648 349.2793 174.5500  1.86231587 20543
BEIDOU-3 M12 (C26)      
1 43603U 18067B   21244.64787307  .00000073  00000-0  00000-0 0  9993
2 43603  54.4486 240.5279 0004288 330.8939  25.8788  1.86231523 20556
BEIDOU-3 M13 (C32)      
1 43622U 18072A   21244.93568655 -.00000016  00000-0  00000+0 0  9992
2 43622  55.3201 121.0557 0005820 294.3324 285.4288  1.86231917 20072
BEIDOU-3 M14 (C33)      
1 43623U 18072B   21243.32611252 -.00000031  00000-0  00000-0 0  9995
2 43623  55.3212 121.1017 0004634 325.1384 345.7118  1.86231950 20044
BEIDOU-3 M15 (C34)      
1 43647U 18078A   21244.62055390 -.00000100  00000-0  10000-3 0  9997
2 43647  55.1973   0.5010 0005273   1.8514 352.0857  1.86233119 19574
BEIDOU-3 M16 (C35)      
1 43648U 18078B   21244.71543193 -.00000100  00000-0  00000-0 0  9997
2 43648  55.1927   0.5051 0003579  24.6919 301.1770  1.86232296 19594
BEIDOU-3 G1 (C59)       
1 43683U 18085A   21245.53134612 -.00000283  00000-0  00000-0 0  9999
2 43683   0.9526 217.1564 0004679  22.4916  73.5159  1.00268965 10529
BEIDOU-3 M17 (C36)      
1 43706U 18093A   21245.45647265  .00000071  00000-0  00000-0 0  9992
2 43706  54.4560 241.8183 0011757 270.3989  89.4830  1.86232037 18971
BEIDOU-3 M18 (C37)      
1 43707U 18093B   21245.31785426  .00000071  00000-0  00000-0 0  9990
2 43707  54.4563 241.8140 0010053 289.0179  68.8483  1.86232134 18955
BEIDOU-3 IGSO-1 (C38)   
1 44204U 19023A   21245.41360627 -.00000177  00000-0  00000-0 0  9998
2 44204  56.1351  56.0804 0027445 186.0836   4.6438  1.00379716  8821
BEIDOU-2 G8             
1 44231U 19027A   21245.64284878 -.00000252  00000-0  00000-0 0  9994
2 44231   0.2777  26.2057 0007023 171.6727 160.0081  1.00268054  8532
BEIDOU-3 IGSO-2 (C39)   
1 44337U 19035A   21245.57912799 -.00000164  00000-0  00000-0 0  9994
2 44337  55.0979 174.3025 0020155 184.6464 309.7632  1.00289236  8162
BEIDOU-3 M23 (C45)      
1 44542U 19061A   21243.24233973  .00000074  00000-0  10000-3 0  9996
2 44542  54.6818 241.9793 0008963 315.5496  43.5548  1.86231642 13171
BEIDOU-3 M24 (C46)      
1 44543U 19061B   21243.91182576  .00000075  00000-0  10000-3 0  9994
2 44543  54.6796 241.9251 0006871 301.3236  57.5975  1.86231963 13183
BEIDOU-3 IGSO-3         
1 44709U 19073A   21245.57556318 -.00000144  00000-0  00000-0 0  9998
2 44709  57.7215 299.3693 0020598 183.4999 184.4154  1.00294102  6924
BEIDOU-3 M21            
1 44793U 19078A   21242.91163056 -.00000106  00000-0  10000-3 0  9996
2 44793  55.0465   0.6162 0005212  10.7242 231.7951  1.86232608 12035
BEIDOU-3 M22            
1 44794U 19078B   21244.39136603 -.00000101  00000-0  00000+0 0  9999
2 44794  55.0230   0.5633 0003307  12.7493  52.9822  1.86232754 12066
BEIDOU-3 M19            
1 44864U 19090A   21245.36159116 -.00000011  00000-0  00000-0 0  9994
2 44864  55.2552 121.2681 0015429 269.1512 281.6765  1.86231965 11660
BEIDOU-3 M20            
1 44865U 19090B   21243.70049249 -.00000029  00000-0  00000-0 0  9995
2 44865  55.2570 121.3547 0014199 285.3178 321.7277  1.86231920 11603
BEIDOU-3 G2             
1 45344U 20017A   21245.59117005 -.00000141  00000-0  00000-0 0  9999
2 45344   2.3346 339.1887 0003982 160.1013 135.5118  1.00271149  5737
BEIDOU-3 G3             
1 45807U 20040A   21245.59727531 -.00000357  00000-0  00000-0 0  9999
2 45807   2.1077 298.8499 0008468 335.9930  32.6714  1.00274530  4559
